NORAD_CAT_ID,OBJECT_NAME,OBJECT_TYPE,EPOCH,MEAN_MOTION,ECCENTRICITY,INCLINATION,RA_OF_ASC_NODE,ARG_OF_PERICENTER,MEAN_ANOMALY,BSTAR,MEAN_MOTION_DOT,MEAN_MOTION_DDOT,TLE_LINE0,TLE_LINE1,TLE_LINE2,SEMIMAJOR_AXIS,PERIOD,APOGEE,PERIGEE,DECAYED
49459.0,STARLINK-3141,PAYLOAD,2023-12-04 09:00:27,15.08850418,0.0002073,53.2176,328.5908,82.6345,277.4883,0.00036039,5.454e-05,0.0,0 STARLINK-3141,1 49459U 21104BD  23338.37531588  .00005454  00000-0  36039-3 0  9990,2 49459  53.2176 328.5908 0002073  82.6345 277.4883 15.08850418114030,6917.849,95.437,541.148,538.279,0.0
49459.0,STARLINK-3141,PAYLOAD,2023-12-05 04:05:05,15.08844324,0.0002131,53.2175,325.0211,101.5818,258.5413,0.00020046,2.904e-05,0.0,0 STARLINK-3141,1 49459U 21104BD  23339.17019733  .00002904  00000-0  20046-3 0  9990,2 49459  53.2175 325.0211 0002131 101.5818 258.5413 15.08844324115229,6917.867,95.437,541.206,538.258,0.0
49459.0,STARLINK-3141,PAYLOAD,2023-12-05 08:51:14,15.08844546,0.0002129,53.2197,324.1248,90.4526,269.671,0.00029128,4.351e-05,0.0,0 STARLINK-3141,1 49459U 21104BD  23339.36891795  .00004351  00000-0  29128-3 0  9995,2 49459  53.2197 324.1248 0002129  90.4526 269.6710 15.08844546114185,6917.866,95.437,541.204,538.259,0.0
49459.0,STARLINK-3141,PAYLOAD,2023-12-06 08:42:01,15.08845473,0.0002324,53.2183,319.6654,101.6793,258.446,4.0386e-05,3.55e-06,0.0,0 STARLINK-3141,1 49459U 21104BD  23340.36251516  .00000355  00000-0  40386-4 0  9998,2 49459  53.2183 319.6654 0002324 101.6793 258.4460 15.08845473115402,6917.864,95.437,541.336,538.121,0.0
49459.0,STARLINK-3141,PAYLOAD,2023-12-07 03:46:39,15.08837334,0.0002235,53.2186,316.0955,97.5696,262.555,5.6303e-05,6.08e-06,0.0,0 STARLINK-3141,1 49459U 21104BD  23341.15740203  .00000608  00000-0  56303-4 0  9999,2 49459  53.2186 316.0955 0002235  97.5696 262.5550 15.08837334115522,6917.889,95.438,541.3,538.207,0.0
49459.0,STARLINK-3141,PAYLOAD,2023-12-08 08:23:36,15.08839755,0.0002077,53.2182,310.7472,108.4699,251.6519,1.9353e-05,2e-07,0.0,0 STARLINK-3141,1 49459U 21104BD  23342.34972414  .00000020  00000-0  19353-4 0  9994,2 49459  53.2182 310.7472 0002077 108.4699 251.6519 15.08839755115705,6917.881,95.438,541.183,538.309,0.0
49459.0,STARLINK-3141,PAYLOAD,2023-12-09 06:38:59,15.08844601,0.0001911,53.218,306.5841,93.1959,266.9252,0.00018536,2.663e-05,0.0,0 STARLINK-3141,1 49459U 21104BD  23343.27708103  .00002663  00000-0  18536-3 0  9995,2 49459  53.2180 306.5841 0001911  93.1959 266.9252 15.08844601114776,6917.866,95.437,541.053,538.409,0.0
49459.0,STARLINK-3141,PAYLOAD,2023-12-11 04:45:10,15.0884855,0.0001841,53.2179,297.9647,94.7711,265.3492,4.5031e-05,4.29e-06,0.0,0 STARLINK-3141,1 49459U 21104BD  23345.19804361  .00000429  00000-0  45031-4 0  9990,2 49459  53.2179 297.9647 0001841  94.7711 265.3492 15.08848550116134,6917.854,95.437,540.993,538.446,0.0
49459.0,STARLINK-3141,PAYLOAD,2023-12-12 03:00:35,15.08840966,0.0002297,53.2188,293.8017,70.2167,289.9073,8.1075e-05,1.002e-05,0.0,0 STARLINK-3141,1 49459U 21104BD  23346.12541008  .00001002  00000-0  81075-4 0  9996,2 49459  53.2188 293.8017 0002297  70.2167 289.9073 15.08840966116275,6917.877,95.437,541.331,538.153,0.0
49459.0,STARLINK-3141,PAYLOAD,2023-12-13 02:51:21,15.08848578,0.0001959,53.2179,289.3432,85.6729,274.4487,0.00011756,1.584e-05,0.0,0 STARLINK-3141,1 49459U 21104BD  23347.11900222  .00001584  00000-0  11756-3 0  9996,2 49459  53.2179 289.3432 0001959  85.6729 274.4487 15.08848578116426,6917.854,95.437,541.074,538.364,0.0
49459.0,STARLINK-3141,PAYLOAD,2023-12-14 01:06:46,15.08840252,0.0002097,53.2183,285.1796,112.6516,247.4698,3.3645e-05,2.47e-06,0.0,0 STARLINK-3141,1 49459U 21104BD  23348.04636708  .00000247  00000-0  33645-4 0  9991,2 49459  53.2183 285.1796 0002097 112.6516 247.4698 15.08840252116567,6917.88,95.438,541.195,538.294,0.0
49459.0,STARLINK-3141,PAYLOAD,2023-12-14 18:36:00,15.08843957,0.0001816,53.2177,281.9052,102.8491,257.2704,2.352e-06,-2.51e-06,0.0,0 STARLINK-3141,1 49459U 21104BD  23348.77500696 -.00000251  00000-0  23520-5 0  9995,2 49459  53.2177 281.9052 0001816 102.8491 257.2704 15.08843957115606,6917.868,95.437,540.99,538.477,0.0
49459.0,STARLINK-3141,PAYLOAD,2023-12-15 02:32:56,15.08802097,0.0002381,53.2185,280.4195,109.4219,250.7031,0.0007381,0.00011466,0.0,0 STARLINK-3141,1 49459U 21104BD  23349.10621267  .00011466  00000-0  73810-3 0  9995,2 49459  53.2185 280.4195 0002381 109.4219 250.7031 15.08802097116721,6917.996,95.44,541.508,538.214,0.0
49459.0,STARLINK-3141,PAYLOAD,2023-12-16 02:23:43,15.08833402,0.000184,53.2176,275.9598,106.0987,254.0208,7.2063e-06,-1.73e-06,0.0,0 STARLINK-3141,1 49459U 21104BD  23350.09981257 -.00000173  00000-0  72063-5 0  9998,2 49459  53.2176 275.9598 0001840 106.0987 254.0208 15.08833402116874,6917.901,95.438,541.038,538.493,0.0
49459.0,STARLINK-3141,PAYLOAD,2023-12-17 02:14:30,15.08846115,0.0001784,53.2172,271.4975,103.5347,256.5844,0.00014704,2.053e-05,0.0,0 STARLINK-3141,1 49459U 21104BD  23351.09340820  .00002053  00000-0  14704-3 0  9998,2 49459  53.2172 271.4975 0001784 103.5347 256.5844 15.08846115117025,6917.862,95.437,540.961,538.493,0.0
49459.0,STARLINK-3141,PAYLOAD,2023-12-18 02:05:17,15.08849102,0.0002213,53.2175,267.0368,64.5201,295.602,0.00081446,0.00012701,0.0,0 STARLINK-3141,1 49459U 21104BD  23352.08701172  .00012701  00000-0  81446-3 0  9997,2 49459  53.2175 267.0368 0002213  64.5201 295.6020 15.08849102117173,6917.853,95.437,541.248,538.187,0.0
49459.0,STARLINK-3141,PAYLOAD,2023-12-18 22:45:18,15.08837774,0.0001534,53.2165,263.1729,78.649,281.4674,-4.8042e-05,-1.052e-05,0.0,0 STARLINK-3141,1 49459U 21104BD  23352.94813201 -.00001052  00000-0 -48042-4 0  9994,2 49459  53.2165 263.1729 0001534  78.6490 281.4674 15.08837774116237,6917.887,95.438,540.813,538.691,0.0
49459.0,STARLINK-3141,PAYLOAD,2023-12-19 01:56:05,15.08835591,0.0001683,53.2167,262.5792,66.9235,293.1934,-4.8628e-05,-1.062e-05,0.0,0 STARLINK-3141,1 49459U 21104BD  23353.08061350 -.00001062  00000-0 -48628-4 0  9991,2 49459  53.2167 262.5792 0001683  66.9235 293.1934 15.08835591117329,6917.894,95.438,540.923,538.595,0.0
49459.0,STARLINK-3141,PAYLOAD,2023-12-20 00:11:28,15.08845484,0.0001323,53.2151,258.4182,78.1179,281.9961,0.00056234,8.674e-05,0.0,0 STARLINK-3141,1 49459U 21104BD  23354.00797387  .00008674  00000-0  56234-3 0  9995,2 49459  53.2151 258.4182 0001323  78.1179 281.9961 15.08845484117464,6917.864,95.437,540.644,538.813,0.0
49459.0,STARLINK-3141,PAYLOAD,2023-12-20 22:26:52,15.08855327,0.0001312,53.2156,254.2523,83.4215,276.6927,0.00049413,7.588e-05,0.0,0 STARLINK-3141,1 49459U 21104BD  23354.93532943  .00007588  00000-0  49413-3 0  9996,2 49459  53.2156 254.2523 0001312  83.4215 276.6927 15.08855327116537,6917.834,95.437,540.606,538.791,0.0
49459.0,STARLINK-3141,PAYLOAD,2023-12-21 00:02:15,15.08862194,0.0001418,53.2151,253.9608,100.8341,259.2811,0.00068737,0.00010675,0.0,0 STARLINK-3141,1 49459U 21104BD  23355.00156745  .00010675  00000-0  68737-3 0  9998,2 49459  53.2151 253.9608 0001418 100.8341 259.2811 15.08862194116543,6917.813,95.436,540.658,538.697,0.0
49459.0,STARLINK-3141,PAYLOAD,2023-12-21 22:17:39,15.08840198,0.0001468,53.2156,249.7916,116.7513,243.3629,8.9418e-05,1.135e-05,0.0,0 STARLINK-3141,1 49459U 21104BD  23355.92893078  .00001135  00000-0  89418-4 0  9997,2 49459  53.2156 249.7916 0001468 116.7513 243.3629 15.08840198116681,6917.88,95.438,540.76,538.729,0.0
49459.0,STARLINK-3141,PAYLOAD,2023-12-21 23:53:02,15.088401,0.0001336,53.2159,249.4924,103.8365,256.2776,3.2535e-05,2.3e-06,0.0,0 STARLINK-3141,1 49459U 21104BD  23355.99517108  .00000230  00000-0  32535-4 0  9994,2 49459  53.2159 249.4924 0001336 103.8365 256.2776 15.08840100117765,6917.88,95.438,540.669,538.821,0.0
49459.0,STARLINK-3141,PAYLOAD,2023-12-22 22:08:27,15.0884434,0.0001353,53.2157,245.3322,80.1502,279.9643,0.00025198,3.725e-05,0.0,0 STARLINK-3141,1 49459U 21104BD  23356.92253473  .00003725  00000-0  25198-3 0  9998,2 49459  53.2157 245.3322 0001353  80.1502 279.9643 15.08844340116831,6917.867,95.437,540.668,538.796,0.0
49459.0,STARLINK-3141,PAYLOAD,2023-12-23 02:54:36,15.08850576,0.0001469,53.2166,244.4315,91.3201,268.796,0.0004637,7.102e-05,0.0,0 STARLINK-3141,1 49459U 21104BD  23357.12125176  .00007102  00000-0  46370-3 0  9997,2 49459  53.2166 244.4315 0001469  91.3201 268.7960 15.08850576117939,6917.848,95.437,540.729,538.697,0.0
49459.0,STARLINK-3141,PAYLOAD,2023-12-23 17:13:04,15.08830191,0.0001202,53.2171,241.7646,117.5754,242.536,1.011e-05,-1.27e-06,0.0,0 STARLINK-3141,1 49459U 21104BD  23357.71741890 -.00000127  00000-0  10110-4 0  9994,2 49459  53.2171 241.7646 0001202 117.5754 242.5360 15.08830191118027,6917.91,95.438,540.607,538.944,0.0
49459.0,STARLINK-3141,PAYLOAD,2023-12-23 21:59:14,15.08840044,0.0001449,53.2158,240.8708,100.0127,260.1029,0.00014883,2.081e-05,0.0,0 STARLINK-3141,1 49459U 21104BD  23357.91613739  .00002081  00000-0  14883-3 0  9996,2 49459  53.2158 240.8708 0001449 100.0127 260.1029 15.08840044116984,6917.88,95.438,540.748,538.743,0.0
49459.0,STARLINK-3141,PAYLOAD,2023-12-23 23:34:37,15.08843747,0.0001545,53.2164,240.5733,108.7667,251.3493,0.00029219,4.366e-05,0.0,0 STARLINK-3141,1 49459U 21104BD  23357.98237653  .00004366  00000-0  29219-3 0  9997,2 49459  53.2164 240.5733 0001545 108.7667 251.3493 15.08843747118068,6917.869,95.437,540.803,538.665,0.0
49459.0,STARLINK-3141,PAYLOAD,2023-12-24 20:14:38,15.08840002,0.0001619,53.2161,236.7077,114.5685,245.5476,0.00025513,3.775e-05,0.0,0 STARLINK-3141,1 49459U 21104BD  23358.84349959  .00003775  00000-0  25513-3 0  9992,2 49459  53.2161 236.7077 0001619 114.5685 245.5476 15.08840002118191,6917.88,95.438,540.865,538.625,0.0
49459.0,STARLINK-3141,PAYLOAD,2023-12-24 21:50:01,15.08841813,0.0001624,53.2162,236.4105,115.0587,245.0574,0.00017709,2.532e-05,0.0,0 STARLINK-3141,1 49459U 21104BD  23358.90973878  .00002532  00000-0  17709-3 0  9990,2 49459  53.2162 236.4105 0001624 115.0587 245.0574 15.08841813117132,6917.875,95.437,540.863,538.616,0.0
